COMMENT,ORIGINATOR,NORAD_CAT_ID,OBJECT_NAME,OBJECT_TYPE,CLASSIFICATION_TYPE,INTLDES,EPOCH,EPOCH_MICROSECONDS,MEAN_MOTION,ECCENTRICITY,INCLINATION,RA_OF_ASC_NODE,ARG_OF_PERICENTER,MEAN_ANOMALY,EPHEMERIS_TYPE,ELEMENT_SET_NO,REV_AT_EPOCH,BSTAR,MEAN_MOTION_DOT,MEAN_MOTION_DDOT,FILE,TLE_LINE0,TLE_LINE1,TLE_LINE2,OBJECT_ID,OBJECT_NUMBER,SEMIMAJOR_AXIS,PERIOD,APOGEE,PERIGEE,DECAYED
"GENERATED VIA SPACETRACK.ORG API","18 SPCS","55102","SPACEBEE-157","PAYLOAD","U","23001CX","2023-04-23 02:28:50","426688","15.18658356","0.001562","97.48","173.7953","191.2327","168.856","0","999","1674","0.0011019","0.00022887","0","3892688","0 SPACEBEE-157","1 55102U 23001CX  23113.10336142  .00022887  00000-0  11019-2 0  9990","2 55102  97.4800 173.7953 0015620 191.2327 168.8560 15.18658356 16747","2023-001CX","55102","6888.031","94.821","520.656","499.137","0"
"GENERATED VIA SPACETRACK.ORG API","18 SPCS","55102","SPACEBEE-157","PAYLOAD","U","23001CX","2023-04-23 18:17:38","552928","15.18693102","0.0015712","97.48","174.4473","188.9533","171.1423","0","999","1684","0.0014112","0.00029387","0","3892831","0 SPACEBEE-157","1 55102U 23001CX  23113.76225177  .00029387  00000-0  14112-2 0  9996","2 55102  97.4800 174.4473 0015712 188.9533 171.1423 15.18693102 16840","2023-001CX","55102","6887.926","94.818","520.614","498.969","0"
"GENERATED VIA SPACETRACK.ORG API","18 SPCS","55102","SPACEBEE-157","PAYLOAD","U","23001CX","2023-04-23 18:17:38","552928","15.18693102","0.0015712","97.48","174.4473","188.9533","171.1423","0","999","1684","0.0014112","0.00029387","0","3892982","0 SPACEBEE-157","1 55102U 23001CX  23113.76225177  .00029387  00000-0  14112-2 0  9996","2 55102  97.4800 174.4473 0015712 188.9533 171.1423 15.18693102 16840","2023-001CX","55102","6887.926","94.818","520.614","498.969","0"
"GENERATED VIA SPACETRACK.ORG API","18 SPCS","55102","SPACEBEE-157","PAYLOAD","U","23001CX","2023-04-25 09:49:30","623808","15.18811113","0.001577","97.4795","176.0777","183.6008","176.5116","0","999","1709","0.0010574","0.00022056","0","3894092","0 SPACEBEE-157","1 55102U 23001CX  23115.40938222  .00022056  00000-0  10574-2 0  9995","2 55102  97.4795 176.0777 0015770 183.6008 176.5116 15.18811113 17091","2023-001CX","55102","6887.570","94.811","520.296","498.573","0"
"GENERATED VIA SPACETRACK.ORG API","18 SPCS","55102","SPACEBEE-157","PAYLOAD","U","23001CX","2023-04-26 09:32:34","385280","15.18839532","0.001577","97.4796","177.0556","180.7903","179.3309","0","999","1724","0.00082221","0.00017138","0","3894260","0 SPACEBEE-157","1 55102U 23001CX  23116.39762020  .00017138  00000-0  82221-3 0  9999","2 55102  97.4796 177.0556 0015770 180.7903 179.3309 15.18839532 17247","2023-001CX","55102","6887.484","94.809","520.210","498.487","0"
"GENERATED VIA SPACETRACK.ORG API","18 SPCS","55102","SPACEBEE-157","PAYLOAD","U","23001CX","2023-04-28 02:39:08","71776","15.1891134","0.0015824","97.4804","178.7513","175.1209","185.0182","0","999","1750","0.0010942","0.00022896","0","3895270","0 SPACEBEE-157","1 55102U 23001CX  23118.11051009  .00022896  00000-0  10942-2 0  9996","2 55102  97.4804 178.7513 0015824 175.1209 185.0182 15.18911340 17505","2023-001CX","55102","6887.267","94.805","520.030","498.233","0"
"GENERATED VIA SPACETRACK.ORG API","18 SPCS","55102","SPACEBEE-157","PAYLOAD","U","23001CX","2023-04-28 02:39:08","71776","15.1891134","0.0015824","97.4804","178.7513","175.1209","185.0182","0","999","1750","0.0010942","0.00022896","0","3895770","0 SPACEBEE-157","1 55102U 23001CX  23118.11051009  .00022896  00000-0  10942-2 0  9996","2 55102  97.4804 178.7513 0015824 175.1209 185.0182 15.18911340 17505","2023-001CX","55102","6887.267","94.805","520.030","498.233","0"
"GENERATED VIA SPACETRACK.ORG API","18 SPCS","55102","SPACEBEE-157","PAYLOAD","U","23001CX","2023-04-29 03:56:57","704928","15.18950855","0.0016006","97.4801","179.795","170.8505","189.3024","0","999","1766","0.00089886","0.00018809","0","3896193","0 SPACEBEE-157","1 55102U 23001CX  23119.16455677  .00018809  00000-0  89886-3 0  9994","2 55102  97.4801 179.7950 0016006 170.8505 189.3024 15.18950855 17665","2023-001CX","55102","6887.147","94.802","520.036","497.989","0"
"GENERATED VIA SPACETRACK.ORG API","18 SPCS","55102","SPACEBEE-157","PAYLOAD","U","23001CX","2023-04-29 03:56:57","704928","15.18950855","0.0016006","97.4801","179.795","170.8505","189.3024","0","999","1766","0.00089886","0.00018809","0","3896517","0 SPACEBEE-157","1 55102U 23001CX  23119.16455677  .00018809  00000-0  89886-3 0  9994","2 55102  97.4801 179.7950 0016006 170.8505 189.3024 15.18950855 17665","2023-001CX","55102","6887.147","94.802","520.036","497.989","0"
"GENERATED VIA SPACETRACK.ORG API","18 SPCS","55102","SPACEBEE-157","PAYLOAD","U","23001CX","2023-04-30 09:59:19","493376","15.19001324","0.001611","97.4795","181.0336","166.7339","193.4322","0","999","1785","0.00089171","0.00018686","0","3897299","0 SPACEBEE-157","1 55102U 23001CX  23120.41619784  .00018686  00000-0  89171-3 0  9995","2 55102  97.4795 181.0336 0016110 166.7339 193.4322 15.19001324 17853","2023-001CX","55102","6886.995","94.799","519.955","497.765","0"
"GENERATED VIA SPACETRACK.ORG API","18 SPCS","55102","SPACEBEE-157","PAYLOAD","U","23001CX","2023-04-30 09:59:19","493376","15.19001324","0.001611","97.4795","181.0336","166.7339","193.4322","0","999","1785","0.00089171","0.00018686","0","3897442","0 SPACEBEE-157","1 55102U 23001CX  23120.41619784  .00018686  00000-0  89171-3 0  9995","2 55102  97.4795 181.0336 0016110 166.7339 193.4322 15.19001324 17853","2023-001CX","55102","6886.995","94.799","519.955","497.765","0"
"GENERATED VIA SPACETRACK.ORG API","18 SPCS","55102","SPACEBEE-157","PAYLOAD","U","23001CX","2023-05-01 04:57:37","854432","15.19029527","0.001617","97.4797","181.8164","164.4377","195.7357","0","999","1797","0.0008232","0.00017256","0","3898258","0 SPACEBEE-157","1 55102U 23001CX  23121.20668813  .00017256  00000-0  82320-3 0  9991","2 55102  97.4797 181.8164 0016170 164.4377 195.7357 15.19029527 17976","2023-001CX","55102","6886.909","94.797","519.910","497.638","0"
"GENERATED VIA SPACETRACK.ORG API","18 SPCS","55102","SPACEBEE-157","PAYLOAD","U","23001CX","2023-05-01 17:36:29","476800","15.19046006","0.0016163","97.4796","182.338","162.7411","197.4376","0","999","1805","0.00080315","0.00016842","0","3898402","0 SPACEBEE-157","1 55102U 23001CX  23121.73367450  .00016842  00000-0  80315-3 0  9994","2 55102  97.4796 182.3380 0016163 162.7411 197.4376 15.19046006 18054","2023-001CX","55102","6886.860","94.796","519.856","497.593","0"
"GENERATED VIA SPACETRACK.ORG API","18 SPCS","55102","SPACEBEE-157","PAYLOAD","U","23001CX","2023-05-01 17:36:29","476800","15.19046006","0.0016163","97.4796","182.338","162.7411","197.4376","0","999","1805","0.00080315","0.00016842","0","3898518","0 SPACEBEE-157","1 55102U 23001CX  23121.73367450  .00016842  00000-0  80315-3 0  9994","2 55102  97.4796 182.3380 0016163 162.7411 197.4376 15.19046006 18054","2023-001CX","55102","6886.860","94.796","519.856","497.593","0"
"GENERATED VIA SPACETRACK.ORG API","18 SPCS","55102","SPACEBEE-157","PAYLOAD","U","23001CX","2023-05-02 09:25:03","97344","15.19074592","0.0016165","97.4795","182.9902","160.6729","199.5122","0","999","1815","0.0010026","0.0002107","0","3899068","0 SPACEBEE-157","1 55102U 23001CX  23122.39239696  .00021070  00000-0  10026-2 0  9997","2 55102  97.4795 182.9902 0016165 160.6729 199.5122 15.19074592 18154","2023-001CX","55102","6886.773","94.795","519.771","497.506","0"
"GENERATED VIA SPACETRACK.ORG API","18 SPCS","55102","SPACEBEE-157","PAYLOAD","U","23001CX","2023-05-02 17:19:19","568928","15.19086805","0.0016185","97.4795","183.3163","159.6347","200.5536","0","999","1820","0.00097527","0.000205","0","3899277","0 SPACEBEE-157","1 55102U 23001CX  23122.72175427  .00020500  00000-0  97527-3 0  9994","2 55102  97.4795 183.3163 0016185 159.6347 200.5536 15.19086805 18202","2023-001CX","55102","6886.736","94.794","519.747","497.455","0"
"GENERATED VIA SPACETRACK.ORG API","18 SPCS","55102","SPACEBEE-157","PAYLOAD","U","23001CX","2023-05-03 02:48:27","3744","15.19102213","0.0016206","97.4797","183.7075","158.3064","201.8861","0","999","1826","0.00095931","0.00020172","0","3899413","0 SPACEBEE-157","1 55102U 23001CX  23123.11697921  .00020172  00000-0  95931-3 0  9998","2 55102  97.4797 183.7075 0016206 158.3064 201.8861 15.19102213 18269","2023-001CX","55102","6886.690","94.793","519.715","497.394","0"
"GENERATED VIA SPACETRACK.ORG API","18 SPCS","55102","SPACEBEE-157","PAYLOAD","U","23001CX","2023-05-03 10:42:42","964704","15.19111095","0.0016224","97.4796","184.0337","157.1575","203.0385","0","999","1831","0.00082639","0.00017365","0","3899966","0 SPACEBEE-157","1 55102U 23001CX  23123.44633061  .00017365  00000-0  82639-3 0  9990","2 55102  97.4796 184.0337 0016224 157.1575 203.0385 15.19111095 18316","2023-001CX","55102","6886.663","94.792","519.701","497.355","0"
"GENERATED VIA SPACETRACK.ORG API","18 SPCS","55102","SPACEBEE-157","PAYLOAD","U","23001CX","2023-05-03 17:02:07","542528","15.19121986","0.0016236","97.4795","184.2947","156.2603","203.9384","0","999","1835","0.00083625","0.00017579","0","3900281","0 SPACEBEE-157","1 55102U 23001CX  23123.70980952  .00017579  00000-0  83625-3 0  9996","2 55102  97.4795 184.2947 0016236 156.2603 203.9384 15.19121986 18351","2023-001CX","55102","6886.630","94.792","519.676","497.314","0"
"GENERATED VIA SPACETRACK.ORG API","18 SPCS","55102","SPACEBEE-157","PAYLOAD","U","23001CX","2023-05-04 10:25:29","314848","15.19150452","0.0016304","97.4796","185.0123","153.9561","206.2497","0","999","1846","0.00086236","0.00018147","0","3900732","0 SPACEBEE-157","1 55102U 23001CX  23124.43436707  .00018147  00000-0  86236-3 0  9994","2 55102  97.4796 185.0123 0016304 153.9561 206.2497 15.19150452 18463","2023-001CX","55102","6886.544","94.790","519.637","497.181","0"
